{"epoch":1784710044,"count":18256,"objects":[{"id":"48274","name":"CSS (TIANHE-1)","type":"PAYLOAD","l1":"1 48274U 21035A   26202.43210246  .00010973  00000-0  14512-3 0  9996","l2":"2 48274  41.4683 114.0267 0001747 306.5318  53.5359 15.58235366298518"}]}